{
    "links": {
        "self": "http://www.neowsapp.com/rest/v1/neo/3466652?api_key=iIulBulltgU6a56xZRHN4H3l9WmuAYTsLGpBGhQ2"
    },
    "id": "3466652",
    "neo_reference_id": "3466652",
    "name": "(2009 QA35)",
    "designation": "2009 QA35",
    "nasa_jpl_url": "http://ssd.jpl.nasa.gov/sbdb.cgi?sstr=3466652",
    "absolute_magnitude_h": 22.4,
    "estimated_diameter": {
        "kilometers": {
            "estimated_diameter_min": 0.0880146521,
            "estimated_diameter_max": 0.1968067451
        },
        "meters": {
            "estimated_diameter_min": 88.0146520901,
            "estimated_diameter_max": 196.8067450894
        },
        "miles": {
            "estimated_diameter_min": 0.0546897524,
            "estimated_diameter_max": 0.122290004
        },
        "feet": {
            "estimated_diameter_min": 288.7619911632,
            "estimated_diameter_max": 645.6914415591
        }
    },
    "is_potentially_hazardous_asteroid": false,
    "close_approach_data": [
        {
            "close_approach_date": "2009-08-13",
            "close_approach_date_full": "2009-Aug-13 14:25",
            "epoch_date_close_approach": 1250173500000,
            "relative_velocity": {
                "kilometers_per_second": "8.265986321",
                "kilometers_per_hour": "29757.5507554527",
                "miles_per_hour": "18490.1848013534"
            },
            "miss_distance": {
                "astronomical": "0.1757937901",
                "lunar": "68.3837843489",
                "kilometers": "26298376.558187087",
                "miles": "16341053.4485403206"
            },
            "orbiting_body": "Earth"
        }
    ],
    "orbital_data": {
        "orbit_id": "15",
        "orbit_determination_date": "2017-04-06 09:00:08",
        "first_observation_date": "2009-08-28",
        "last_observation_date": "2009-09-26",
        "data_arc_in_days": 29,
        "observations_used": 45,
        "orbit_uncertainty": "7",
        "minimum_orbit_intersection": ".181893",
        "jupiter_tisserand_invariant": "3.119",
        "epoch_osculation": "2459000.5",
        "eccentricity": ".554879776151565",
        "semi_major_axis": "2.659164057023542",
        "inclination": "12.2680520678451",
        "ascending_node_longitude": "335.1723968018937",
        "orbital_period": "1583.857570517089",
        "perihelion_distance": "1.183647700312032",
        "perihelion_argument": "340.3646268868094",
        "aphelion_distance": "4.134680413735052",
        "perihelion_time": "2459790.239893308477",
        "mean_anomaly": "180.4975201790191",
        "mean_motion": ".2272931649292614",
        "equinox": "J2000",
        "orbit_class": {
            "orbit_class_type": "AMO",
            "orbit_class_description": "Near-Earth asteroid orbits similar to that of 1221 Amor",
            "orbit_class_range": "1.017 AU < q (perihelion) < 1.3 AU"
        }
    },
    "is_sentry_object": false
}